[{"OBJECT_NAME":"STARLINK-37073","OBJECT_ID":"2026-049K","EPOCH":"2026-04-02T06:00:02.999808","MEAN_MOTION":15.7519244,"ECCENTRICITY":0.00012361,"INCLINATION":97.2843,"RA_OF_ASC_NODE":112.6976,"ARG_OF_PERICENTER":74.079,"MEAN_ANOMALY":144.8381,"EPHEMERIS_TYPE":0,"CLASSIFICATION_TYPE":"U","NORAD_CAT_ID":68151,"ELEMENT_SET_NO":999,"REV_AT_EPOCH":440,"BSTAR":-0.00014616375,"MEAN_MOTION_DOT":-0.00021877,"MEAN_MOTION_DDOT":0},{"OBJECT_NAME":"STARLINK-37049","OBJECT_ID":"2026-049L","EPOCH":"2026-04-02T06:28:29.055936","MEAN_MOTION":15.80867928,"ECCENTRICITY":0.00014044,"INCLINATION":97.2838,"RA_OF_ASC_NODE":112.7312,"ARG_OF_PERICENTER":99.107,"MEAN_ANOMALY":261.0357,"EPHEMERIS_TYPE":0,"CLASSIFICATION_TYPE":"U","NORAD_CAT_ID":68152,"ELEMENT_SET_NO":999,"REV_AT_EPOCH":313,"BSTAR":0.0013699574,"MEAN_MOTION_DOT":0.00271236,"MEAN_MOTION_DDOT":0},{"OBJECT_NAME":"STARLINK-37072","OBJECT_ID":"2026-049M","EPOCH":"2026-04-02T06:00:02.999808","MEAN_MOTION":15.75175135,"ECCENTRICITY":0.00012106,"INCLINATION":97.2846,"RA_OF_ASC_NODE":112.6902,"ARG_OF_PERICENTER":74.6733,"MEAN_ANOMALY":124.2646,"EPHEMERIS_TYPE":0,"CLASSIFICATION_TYPE":"U","NORAD_CAT_ID":68153,"ELEMENT_SET_NO":999,"REV_AT_EPOCH":440,"BSTAR":1.4258727e-5,"MEAN_MOTION_DOT":1.996e-5,"MEAN_MOTION_DDOT":0},{"OBJECT_NAME":"STARLINK-36241","OBJECT_ID":"2026-049N","EPOCH":"2026-04-02T06:58:17.556672","MEAN_MOTION":15.75256847,"ECCENTRICITY":9.065e-5,"INCLINATION":97.2849,"RA_OF_ASC_NODE":112.702,"ARG_OF_PERICENTER":118.2242,"MEAN_ANOMALY":241.9115,"EPHEMERIS_TYPE":0,"CLASSIFICATION_TYPE":"U","NORAD_CAT_ID":68154,"ELEMENT_SET_NO":999,"REV_AT_EPOCH":313,"BSTAR":0.0017227718,"MEAN_MOTION_DOT":0.00265762,"MEAN_MOTION_DDOT":0},{"OBJECT_NAME":"STARLINK-37048","OBJECT_ID":"2026-049P","EPOCH":"2026-04-02T04:51:55.142784","MEAN_MOTION":15.8090052,"ECCENTRICITY":0.00017305,"INCLINATION":97.2839,"RA_OF_ASC_NODE":112.6687,"ARG_OF_PERICENTER":124.6183,"MEAN_ANOMALY":235.5249,"EPHEMERIS_TYPE":0,"CLASSIFICATION_TYPE":"U","NORAD_CAT_ID":68155,"ELEMENT_SET_NO":999,"REV_AT_EPOCH":312,"BSTAR":0.00090251007,"MEAN_MOTION_DOT":0.00176967,"MEAN_MOTION_DDOT":0},{"OBJECT_NAME":"STARLINK-36313","OBJECT_ID":"2026-049Q","EPOCH":"2026-04-02T07:55:18.939648","MEAN_MOTION":15.80911308,"ECCENTRICITY":0.0001359,"INCLINATION":97.2837,"RA_OF_ASC_NODE":112.8011,"ARG_OF_PERICENTER":91.0127,"MEAN_ANOMALY":269.1297,"EPHEMERIS_TYPE":0,"CLASSIFICATION_TYPE":"U","NORAD_CAT_ID":68156,"ELEMENT_SET_NO":999,"REV_AT_EPOCH":314,"BSTAR":0.0015937153,"MEAN_MOTION_DOT":0.00317902,"MEAN_MOTION_DDOT":0},{"OBJECT_NAME":"STARLINK-37064","OBJECT_ID":"2026-049R","EPOCH":"2026-04-02T06:26:19.018752","MEAN_MOTION":15.80895158,"ECCENTRICITY":0.00012155,"INCLINATION":97.2843,"RA_OF_ASC_NODE":112.7321,"ARG_OF_PERICENTER":108.369,"MEAN_ANOMALY":251.771,"EPHEMERIS_TYPE":0,"CLASSIFICATION_TYPE":"U","NORAD_CAT_ID":68157,"ELEMENT_SET_NO":999,"REV_AT_EPOCH":313,"BSTAR":0.00084024978,"MEAN_MOTION_DOT":0.00164468,"MEAN_MOTION_DDOT":0},{"OBJECT_NAME":"STARLINK-37069","OBJECT_ID":"2026-049S","EPOCH":"2026-04-02T06:53:12.476544","MEAN_MOTION":15.75237567,"ECCENTRICITY":0.00011923,"INCLINATION":97.2847,"RA_OF_ASC_NODE":112.707,"ARG_OF_PERICENTER":94.2271,"MEAN_ANOMALY":265.9131,"EPHEMERIS_TYPE":0,"CLASSIFICATION_TYPE":"U","NORAD_CAT_ID":68158,"ELEMENT_SET_NO":999,"REV_AT_EPOCH":313,"BSTAR":0.0010867148,"MEAN_MOTION_DOT":0.00165479,"MEAN_MOTION_DDOT":0},{"OBJECT_NAME":"STARLINK-37053","OBJECT_ID":"2026-049T","EPOCH":"2026-04-02T07:50:58.857504","MEAN_MOTION":15.80880638,"ECCENTRICITY":0.00013167,"INCLINATION":97.2839,"RA_OF_ASC_NODE":112.8049,"ARG_OF_PERICENTER":105.6991,"MEAN_ANOMALY":254.4422,"EPHEMERIS_TYPE":0,"CLASSIFICATION_TYPE":"U","NORAD_CAT_ID":68159,"ELEMENT_SET_NO":999,"REV_AT_EPOCH":314,"BSTAR":0.00085114499,"MEAN_MOTION_DOT":0.00166532,"MEAN_MOTION_DDOT":0},{"OBJECT_NAME":"STARLINK-36306","OBJECT_ID":"2026-049U","EPOCH":"2026-04-02T06:47:37.331808","MEAN_MOTION":15.75216372,"ECCENTRICITY":0.00017096,"INCLINATION":97.2845,"RA_OF_ASC_NODE":112.7123,"ARG_OF_PERICENTER":87.3036,"MEAN_ANOMALY":272.8425,"EPHEMERIS_TYPE":0,"CLASSIFICATION_TYPE":"U","NORAD_CAT_ID":68160,"ELEMENT_SET_NO":999,"REV_AT_EPOCH":313,"BSTAR":0.0007861818,"MEAN_MOTION_DOT":0.00118918,"MEAN_MOTION_DDOT":0},{"OBJECT_NAME":"STARLINK-37057","OBJECT_ID":"2026-049V","EPOCH":"2026-04-02T04:50:50.184672","MEAN_MOTION":15.80935907,"ECCENTRICITY":0.00017022,"INCLINATION":97.2838,"RA_OF_ASC_NODE":112.6692,"ARG_OF_PERICENTER":113.4029,"MEAN_ANOMALY":246.7418,"EPHEMERIS_TYPE":0,"CLASSIFICATION_TYPE":"U","NORAD_CAT_ID":68161,"ELEMENT_SET_NO":999,"REV_AT_EPOCH":312,"BSTAR":0.0013953188,"MEAN_MOTION_DOT":0.00277314,"MEAN_MOTION_DDOT":0},{"OBJECT_NAME":"STARLINK-37013","OBJECT_ID":"2026-049W","EPOCH":"2026-04-02T07:45:34.196544","MEAN_MOTION":15.8089063,"ECCENTRICITY":9.955e-5,"INCLINATION":97.284,"RA_OF_ASC_NODE":112.8096,"ARG_OF_PERICENTER":115.6004,"MEAN_ANOMALY":244.5368,"EPHEMERIS_TYPE":0,"CLASSIFICATION_TYPE":"U","NORAD_CAT_ID":68162,"ELEMENT_SET_NO":999,"REV_AT_EPOCH":314,"BSTAR":0.0010384392,"MEAN_MOTION_DOT":0.00204187,"MEAN_MOTION_DDOT":0},{"OBJECT_NAME":"STARLINK-36958","OBJECT_ID":"2026-049X","EPOCH":"2026-04-02T06:00:02.999808","MEAN_MOTION":15.76721915,"ECCENTRICITY":0.00014435,"INCLINATION":97.2839,"RA_OF_ASC_NODE":112.7271,"ARG_OF_PERICENTER":79.639,"MEAN_ANOMALY":208.2027,"EPHEMERIS_TYPE":0,"CLASSIFICATION_TYPE":"U","NORAD_CAT_ID":68163,"ELEMENT_SET_NO":999,"REV_AT_EPOCH":440,"BSTAR":-0.012587261,"MEAN_MOTION_DOT":-0.0176832,"MEAN_MOTION_DDOT":0},{"OBJECT_NAME":"STARLINK-37002","OBJECT_ID":"2026-049Y","EPOCH":"2026-04-02T06:17:39.549984","MEAN_MOTION":15.80891944,"ECCENTRICITY":0.00014201,"INCLINATION":97.2842,"RA_OF_ASC_NODE":112.7398,"ARG_OF_PERICENTER":114.0261,"MEAN_ANOMALY":246.1156,"EPHEMERIS_TYPE":0,"CLASSIFICATION_TYPE":"U","NORAD_CAT_ID":68164,"ELEMENT_SET_NO":999,"REV_AT_EPOCH":313,"BSTAR":0.00077889029,"MEAN_MOTION_DOT":0.0015221,"MEAN_MOTION_DDOT":0},{"OBJECT_NAME":"STARLINK-36971","OBJECT_ID":"2026-049Z","EPOCH":"2026-04-02T06:00:02.999808","MEAN_MOTION":15.75125864,"ECCENTRICITY":0.00011205,"INCLINATION":97.2845,"RA_OF_ASC_NODE":112.7129,"ARG_OF_PERICENTER":74.292,"MEAN_ANOMALY":178.5483,"EPHEMERIS_TYPE":0,"CLASSIFICATION_TYPE":"U","NORAD_CAT_ID":68165,"ELEMENT_SET_NO":999,"REV_AT_EPOCH":440,"BSTAR":0.00067911971,"MEAN_MOTION_DOT":0.00102099,"MEAN_MOTION_DDOT":0},{"OBJECT_NAME":"STARLINK-36273","OBJECT_ID":"2026-049AA","EPOCH":"2026-04-02T06:46:36.285888","MEAN_MOTION":15.7521987,"ECCENTRICITY":0.00013019,"INCLINATION":97.2846,"RA_OF_ASC_NODE":112.7135,"ARG_OF_PERICENTER":141.6154,"MEAN_ANOMALY":218.5204,"EPHEMERIS_TYPE":0,"CLASSIFICATION_TYPE":"U","NORAD_CAT_ID":68166,"ELEMENT_SET_NO":999,"REV_AT_EPOCH":313,"BSTAR":0.0010218572,"MEAN_MOTION_DOT":0.00155289,"MEAN_MOTION_DDOT":0}]
