STARLINK-37073          
1 68151U 26049K   26092.25003472 -.00021877  00000+0 -14616-3 0  9991
2 68151  97.2843 112.6976 0001236  74.0790 144.8381 15.75192440  4402
STARLINK-37049          
1 68152U 26049L   26092.26978074  .00271236  00000+0  13700-2 0  9998
2 68152  97.2838 112.7312 0001404  99.1070 261.0357 15.80867928  3138
STARLINK-37072          
1 68153U 26049M   26092.25003472  .00001996  00000+0  14259-4 0  9995
2 68153  97.2846 112.6902 0001210  74.6733 124.2646 15.75175135  4409
STARLINK-36241          
1 68154U 26049N   26092.29048098  .00265762  00000+0  17228-2 0  9993
2 68154  97.2849 112.7020 0000906 118.2242 241.9115 15.75256847  3133
STARLINK-37048          
1 68155U 26049P   26092.20272156  .00176967  00000+0  90251-3 0  9995
2 68155  97.2839 112.6687 0001730 124.6183 235.5249 15.80900520  3128
STARLINK-36313          
1 68156U 26049Q   26092.33008032  .00317902  00000+0  15937-2 0  9993
2 68156  97.2837 112.8011 0001359  91.0127 269.1297 15.80911308  3146
STARLINK-37064          
1 68157U 26049R   26092.26827568  .00164468  00000+0  84025-3 0  9991
2 68157  97.2843 112.7321 0001215 108.3690 251.7710 15.80895158  3135
STARLINK-37069          
1 68158U 26049S   26092.28694996  .00165479  00000+0  10867-2 0  9996
2 68158  97.2847 112.7070 0001192  94.2271 265.9131 15.75237567  3135
STARLINK-37053          
1 68159U 26049T   26092.32707011  .00166532  00000+0  85114-3 0  9994
2 68159  97.2839 112.8049 0001316 105.6991 254.4422 15.80880638  3144
STARLINK-36306          
1 68160U 26049U   26092.28307097  .00118918  00000+0  78618-3 0  9997
2 68160  97.2845 112.7123 0001709  87.3036 272.8425 15.75216372  3135
STARLINK-37057          
1 68161U 26049V   26092.20196973  .00277314  00000+0  13953-2 0  9995
2 68161  97.2838 112.6692 0001702 113.4029 246.7418 15.80935907  3123
STARLINK-37013          
1 68162U 26049W   26092.32331246  .00204187  00000+0  10384-2 0  9996
2 68162  97.2840 112.8096 0000995 115.6004 244.5368 15.80890630  3142
STARLINK-36958          
1 68163U 26049X   26092.25003472 -.01768320  00000+0 -12587-1 0  9999
2 68163  97.2839 112.7271 0001443  79.6390 208.2027 15.76721915  4404
STARLINK-37002          
1 68164U 26049Y   26092.26226331  .00152210  00000+0  77889-3 0  9992
2 68164  97.2842 112.7398 0001420 114.0261 246.1156 15.80891944  3133
STARLINK-36971          
1 68165U 26049Z   26092.25003472  .00102099  00000+0  67912-3 0  9997
2 68165  97.2845 112.7129 0001120  74.2920 178.5483 15.75125864  4402
STARLINK-36273          
1 68166U 26049AA  26092.28236442  .00155289  00000+0  10219-2 0  9992
2 68166  97.2846 112.7135 0001301 141.6154 218.5204 15.75219870  3136
